OBJECT_NAME,OBJECT_ID,EPOCH,MEAN_MOTION,ECCENTRICITY,INCLINATION,RA_OF_ASC_NODE,ARG_OF_PERICENTER,MEAN_ANOMALY,EPHEMERIS_TYPE,CLASSIFICATION_TYPE,NORAD_CAT_ID,ELEMENT_SET_NO,REV_AT_EPOCH,BSTAR,MEAN_MOTION_DOT,MEAN_MOTION_DDOT
CUBEBUG-2 (LO-74),2013-066AA,2026-07-12T02:44:30.088032,14.93954632,.0055997,97.8909,142.2026,305.8130,53.7893,0,U,39440,999,68071,.17874E-3,.1899E-4,0
FUNCUBE-1 (AO-73),2013-066AE,2026-07-11T21:54:09.783072,15.09793381,.0037972,97.8287,164.8814,118.2418,242.2652,0,U,39444,999,68339,.24262E-3,.3917E-4,0
UWE-3,2013-066AG,2026-07-11T19:28:32.557152,14.97185641,.00475172,97.8698,149.0559,236.3304,123.3381,0,U,39446,999,68126,.15712987E-3,.1794E-4,0
UNISAT-6,2014-033C,2026-07-12T05:03:22.789152,14.88359055,.0044426,97.7904,345.4875,347.7479,12.2654,0,U,40012,999,64988,.13419E-3,.1207E-4,0
DUCHIFAT-1,2014-033M,2026-07-11T15:59:20.150016,15.70315468,.000192,98.0458,255.3712,269.1618,90.9422,0,U,40021,999,65958,.77604E-3,.95138E-3,0
QB50P1,2014-033R,2026-07-11T23:50:51.841248,15.18635038,.0010164,98.0966,205.8851,134.1703,226.0367,0,U,40025,999,65679,.25074E-3,.5121E-4,0
LILACSAT-2,2015-049K,2026-07-12T03:53:11.219424,15.52284977,.0008208,97.4630,230.9622,150.3733,209.7985,0,U,40908,999,59962,.20654E-3,.12471E-3,0
FOX-1A (AO-85),2015-058D,2026-07-12T00:50:37.736736,14.91076787,.0132122,64.7730,201.7566,46.9965,314.2129,0,U,40967,999,11727,.16264E-3,.1727E-4,0
CAS-2T & KS-1Q,2016-066G,2026-07-12T04:09:30.210048,14.44766328,.0342398,98.3814,268.6236,53.9111,309.3277,0,U,41847,999,50840,.95449E-4,.623E-5,0
RADFXSAT (FOX-1B),2017-073E,2026-07-12T01:50:41.588736,15.13035809,.0148086,97.4678,59.7847,242.3404,116.2732,0,U,43017,999,46915,.1568E-3,.355E-4,0
DIWATA-2B,2018-084H,2026-07-12T04:14:43.252800,15.00556215,.0012979,98.1220,30.4794,93.5794,266.6913,0,U,43678,999,41996,.10753E-3,.1293E-4,0
ES'HAIL 2,2018-090A,2026-07-12T03:22:03.463104,1.00269504,.0002171,0.0281,44.5798,115.6696,206.0995,0,U,43700,999,2792,0,0,0
FOX-1CLIFF (AO-95),2018-099N,2026-07-12T02:39:13.856256,15.27232320,.0007053,97.4378,253.2714,252.7613,107.2854,0,U,43770,999,41702,.26835E-3,.7092E-4,0
ITASAT,2018-099AE,2026-07-12T02:47:47.467104,15.19358576,.0010804,97.4020,244.1331,262.7378,97.2629,0,U,43786,999,41669,.17557E-3,.3649E-4,0
JY1SAT (JO-97),2018-099AX,2026-07-11T16:29:36.040416,15.34443331,.00065178,97.4124,255.6172,168.9842,191.1545,0,U,43803,999,41738,.301087E-3,.9972E-4,0
UWE-4,2018-111E,2026-07-09T06:35:43.813824,15.47549208,.00052707,97.5841,119.7053,218.3666,141.7210,0,U,43880,999,41419,.53767723E-3,.2764E-3,0
TIANYAN 01,2019-093C,2026-07-12T03:38:53.186208,14.86557616,.0013831,97.7526,264.7741,11.3406,348.8119,0,U,44881,999,35512,.74019E-4,.603E-5,0
RS-44 & BREEZE-KM R/B,2019-096E,2026-07-11T20:47:59.366976,12.79748961,.02185629,82.5240,323.3055,86.7368,275.8710,0,U,44909,999,30550,-.67663538E-4,-.4E-7,0
SALSAT,2020-068K,2026-07-11T12:58:29.571456,15.30139435,.00088233,97.8855,197.0941,206.5203,153.5586,0,U,46495,999,31908,.15528118E-3,.4447E-4,0
XW-3 (CAS-9),2021-131B,2026-07-12T04:25:10.742304,14.41380016,.0004742,98.4985,285.4389,38.6622,321.4906,0,U,50466,999,23871,.68108E-4,.176E-5,0
GREENCUBE (IO-117),2022-080E,2026-07-11T07:23:26.297664,6.42583311,.0009046,70.1420,289.8580,284.3679,75.5976,0,U,53109,999,9361,0,-.3E-7,0
UMKA 1 (RS40S),2023-091G,2026-07-12T02:15:27.635040,15.21100202,.0013332,97.5041,251.6977,39.7413,320.4797,0,U,57172,999,16779,.1683E-3,.368E-4,0
CUBESX-HSE 3 (RS42S),2023-091N,2026-07-12T03:10:29.991648,15.31836533,.000999,97.5086,259.0430,13.0447,347.1051,0,U,57178,999,16824,.27134E-3,.8273E-4,0
MONITOR-3 (RS58S),2023-091Q,2026-07-12T05:06:27.706752,15.28335579,.0011323,97.5077,256.8485,20.1738,339.9947,0,U,57180,999,16811,.21678E-3,.5915E-4,0
MONITOR-4 (RS57S),2023-091S,2026-07-12T04:34:17.929056,15.28421623,.0011327,97.5071,256.7986,20.6117,339.5577,0,U,57182,999,16811,.22351E-3,.6118E-4,0
MONITOR-2 (RS39S),2023-091U,2026-07-12T03:31:43.119840,15.19137320,.0011681,97.5062,251.2698,33.9590,326.2390,0,U,57184,999,16774,.13362E-3,.2742E-4,0
SVYATOBOR 1 (RS60S),2023-091X,2026-07-12T03:50:37.805856,15.27031809,.0009052,97.5083,257.1200,15.2272,344.9237,0,U,57187,999,16812,.20191E-3,.5285E-4,0
VIZARD-METEO (RS38S),2023-091Z,2026-07-12T03:45:56.668032,15.36812410,.0005926,97.5086,263.1542,352.2501,7.8650,0,U,57189,999,16852,.30032E-3,.10729E-3,0
POLYTECH-UNIVERSE 3 (RS46S),2023-091AB,2026-07-12T04:06:00.230400,15.19349249,.001631,97.5038,250.7977,47.6415,312.6197,0,U,57191,999,16774,.14949E-3,.31E-4,0
UTMN 2 (RS27S),2023-091AP,2026-07-12T04:50:27.554784,15.32655753,.0007033,97.5082,260.7776,1.4002,358.7258,0,U,57203,999,16837,.24654E-3,.7699E-4,0
